NORAD_CAT_ID,OBJECT_NAME,OBJECT_TYPE,EPOCH,MEAN_MOTION,ECCENTRICITY,INCLINATION,RA_OF_ASC_NODE,ARG_OF_PERICENTER,MEAN_ANOMALY,BSTAR,MEAN_MOTION_DOT,MEAN_MOTION_DDOT,TLE_LINE0,TLE_LINE1,TLE_LINE2,SEMIMAJOR_AXIS,PERIOD,APOGEE,PERIGEE,DECAYED
52697.0,STARLINK-4018,PAYLOAD,2024-03-26 10:38:37,15.08822483,0.0001556,53.217,111.0049,79.6061,280.5107,1.7854e-05,-4e-08,0.0,0 STARLINK-4018,1 52697U 22053AT  24086.44349232 -.00000004  00000-0  17854-4 0  9996,2 52697  53.2170 111.0049 0001556  79.6061 280.5107 15.08822483103009,6917.934,95.439,540.875,538.723,0.0
52697.0,STARLINK-4018,PAYLOAD,2024-03-26 18:35:33,15.0883084,0.0001488,53.2169,109.5187,83.5386,276.5775,7.7526e-05,9.46e-06,0.0,0 STARLINK-4018,1 52697U 22053AT  24086.77468840  .00000946  00000-0  77526-4 0  9995,2 52697  53.2169 109.5187 0001488  83.5386 276.5775 15.08830840103057,6917.908,95.438,540.803,538.744,0.0
52697.0,STARLINK-4018,PAYLOAD,2024-03-27 10:29:24,15.0884492,0.0001483,53.2156,106.5453,89.5784,270.5378,0.00034794,5.255e-05,0.0,0 STARLINK-4018,1 52697U 22053AT  24087.43708457  .00005255  00000-0  34794-3 0  9997,2 52697  53.2156 106.5453 0001483  89.5784 270.5378 15.08844920103157,6917.865,95.437,540.756,538.704,0.0
52697.0,STARLINK-4018,PAYLOAD,2024-03-27 18:26:19,15.08850051,0.0001533,53.2158,105.0582,87.7743,272.3425,0.00042777,6.528e-05,0.0,0 STARLINK-4018,1 52697U 22053AT  24087.76828359  .00006528  00000-0  42777-3 0  9991,2 52697  53.2158 105.0582 0001533  87.7743 272.3425 15.08850051103613,6917.85,95.437,540.775,538.654,0.0
52697.0,STARLINK-4018,PAYLOAD,2024-03-28 10:20:10,15.08852811,0.0001424,53.2149,102.0818,100.0563,260.059,0.00031916,4.797e-05,0.0,0 STARLINK-4018,1 52697U 22053AT  24088.43068070  .00004797  00000-0  31916-3 0  9991,2 52697  53.2149 102.0818 0001424 100.0563 260.0590 15.08852811103714,6917.841,95.437,540.691,538.721,0.0
52697.0,STARLINK-4018,PAYLOAD,2024-03-28 18:17:05,15.08859564,0.0001429,53.2152,100.5937,102.1132,258.002,0.00033966,5.125e-05,0.0,0 STARLINK-4018,1 52697U 22053AT  24088.76187497  .00005125  00000-0  33966-3 0  9995,2 52697  53.2152 100.5937 0001429 102.1132 258.0020 15.08859564103350,6917.821,95.436,540.674,538.697,0.0
52697.0,STARLINK-4018,PAYLOAD,2024-03-29 10:10:57,15.0884364,0.0001515,53.2154,97.6223,91.4704,268.6462,2.8363e-05,1.63e-06,0.0,0 STARLINK-4018,1 52697U 22053AT  24089.42427789  .00000163  00000-0  28363-4 0  9993,2 52697  53.2154  97.6223 0001515  91.4704 268.6462 15.08843640103453,6917.869,95.437,540.782,538.686,0.0
52697.0,STARLINK-4018,PAYLOAD,2024-03-29 18:07:53,15.08850493,0.0001529,53.2161,96.1356,92.2645,267.8522,0.00023678,3.483e-05,0.0,0 STARLINK-4018,1 52697U 22053AT  24089.75547683  .00003483  00000-0  23678-3 0  9996,2 52697  53.2161  96.1356 0001529  92.2645 267.8522 15.08850493103913,6917.848,95.437,540.771,538.656,0.0
52697.0,STARLINK-4018,PAYLOAD,2024-03-30 06:50:58,15.08839313,0.0001565,53.218,93.7578,93.5513,266.5658,4.442e-05,4.19e-06,0.0,0 STARLINK-4018,1 52697U 22053AT  24090.28540151  .00000419  00000-0  44420-4 0  9994,2 52697  53.2180  93.7578 0001565  93.5513 266.5658 15.08839313103588,6917.882,95.438,540.83,538.665,0.0
52697.0,STARLINK-4018,PAYLOAD,2024-03-31 06:41:45,15.08846107,0.0001443,53.216,89.2971,90.846,269.2698,0.00026159,3.878e-05,0.0,0 STARLINK-4018,1 52697U 22053AT  24091.27899977  .00003878  00000-0  26159-3 0  9997,2 52697  53.2160  89.2971 0001443  90.8460 269.2698 15.08846107104145,6917.862,95.437,540.725,538.728,0.0
52697.0,STARLINK-4018,PAYLOAD,2024-03-31 16:14:04,15.08851093,0.0001425,53.2167,87.5133,90.6111,269.5044,0.00023901,3.519e-05,0.0,0 STARLINK-4018,1 52697U 22053AT  24091.67643526  .00003519  00000-0  23901-3 0  9992,2 52697  53.2167  87.5133 0001425  90.6111 269.5044 15.08851093103792,6917.846,95.437,540.697,538.726,0.0
52697.0,STARLINK-4018,PAYLOAD,2024-04-01 03:21:46,15.0883052,0.0001363,53.2164,85.4316,84.4551,275.6596,3.9263e-05,3.37e-06,0.0,0 STARLINK-4018,1 52697U 22053AT  24092.14012704  .00000337  00000-0  39263-4 0  9997,2 52697  53.2164  85.4316 0001363  84.4551 275.6596 15.08830520103869,6917.909,95.438,540.717,538.831,0.0
52697.0,STARLINK-4018,PAYLOAD,2024-04-01 06:32:32,15.0883506,0.0001375,53.2165,84.8375,84.9888,275.1261,1.6969e-05,-1.8e-07,0.0,0 STARLINK-4018,1 52697U 22053AT  24092.27260387 -.00000018  00000-0  16969-4 0  9998,2 52697  53.2165  84.8375 0001375  84.9888 275.1261 15.08835060104295,6917.895,95.438,540.712,538.809,0.0
52697.0,STARLINK-4018,PAYLOAD,2024-04-01 16:04:51,15.08843061,0.0001445,53.217,83.0536,88.0383,272.0774,0.00013564,1.872e-05,0.0,0 STARLINK-4018,1 52697U 22053AT  24092.67004133  .00001872  00000-0  13564-3 0  9992,2 52697  53.2170  83.0536 0001445  88.0383 272.0774 15.08843061103940,6917.871,95.437,540.736,538.736,0.0
52697.0,STARLINK-4018,PAYLOAD,2024-04-02 06:23:19,15.08842878,0.0001526,53.2184,80.3797,98.7706,261.3459,0.00014801,2.069e-05,0.0,0 STARLINK-4018,1 52697U 22053AT  24093.26620252  .00002069  00000-0  14801-3 0  9998,2 52697  53.2184  80.3797 0001526  98.7706 261.3459 15.08842878104443,6917.872,95.437,540.792,538.681,0.0
52697.0,STARLINK-4018,PAYLOAD,2024-04-02 15:55:38,15.08848026,0.0001561,53.2184,78.5954,94.7328,265.3843,0.00033607,5.066e-05,0.0,0 STARLINK-4018,1 52697U 22053AT  24093.66364113  .00005066  00000-0  33607-3 0  9998,2 52697  53.2184  78.5954 0001561  94.7328 265.3843 15.08848026104501,6917.856,95.437,540.801,538.641,0.0
52697.0,STARLINK-4018,PAYLOAD,2024-04-03 03:03:20,15.08833966,0.0001275,53.2177,76.514,98.4198,261.6939,-2.0214e-05,-6.09e-06,0.0,0 STARLINK-4018,1 52697U 22053AT  24094.12732545 -.00000609  00000-0 -20214-4 0  9999,2 52697  53.2177  76.5140 0001275  98.4198 261.6939 15.08833966104160,6917.899,95.438,540.646,538.882,0.0
52697.0,STARLINK-4018,PAYLOAD,2024-04-03 07:49:32,15.08756117,0.000155,53.2181,75.6216,89.9952,270.1218,-0.0017191,-0.00027481,0.0,0 STARLINK-4018,1 52697U 22053AT  24094.32607635 -.00027481  00000-0 -17191-2 0  9997,2 52697  53.2181  75.6216 0001550  89.9952 270.1218 15.08756117104198,6918.137,95.443,541.074,538.929,0.0
52697.0,STARLINK-4018,PAYLOAD,2024-04-03 15:46:29,15.08771618,9.44e-05,53.2175,74.1346,113.1995,246.9097,-0.0010053,-0.00016221,0.0,0 STARLINK-4018,1 52697U 22053AT  24094.65728338 -.00016221  00000-0 -10053-2 0  9997,2 52697  53.2175  74.1346 0000944 113.1995 246.9097 15.08771618104247,6918.089,95.442,540.607,539.301,0.0
52697.0,STARLINK-4018,PAYLOAD,2024-04-03 22:08:01,15.08817745,0.0001489,53.2169,72.9441,88.5632,271.5531,0.00028867,4.306e-05,0.0,0 STARLINK-4018,1 52697U 22053AT  24094.92223817  .00004306  00000-0  28867-3 0  9991,2 52697  53.2169  72.9441 0001489  88.5632 271.5531 15.08817745104698,6917.948,95.439,540.843,538.783,0.0
52697.0,STARLINK-4018,PAYLOAD,2024-04-04 04:29:34,15.08824387,0.0001694,53.2178,71.7558,85.7573,274.3613,0.00050116,7.694e-05,0.0,0 STARLINK-4018,1 52697U 22053AT  24095.18720162  .00007694  00000-0  50116-3 0  9990,2 52697  53.2178  71.7558 0001694  85.7573 274.3613 15.08824387104327,6917.928,95.439,540.965,538.621,0.0
52697.0,STARLINK-4018,PAYLOAD,2024-04-04 07:40:20,15.08832986,0.0001522,53.2168,71.1592,86.4233,273.6933,0.00048064,7.368e-05,0.0,0 STARLINK-4018,1 52697U 22053AT  24095.31967873  .00007368  00000-0  48064-3 0  9994,2 52697  53.2168  71.1592 0001522  86.4233 273.6933 15.08832986104757,6917.902,95.438,540.82,538.714,0.0
52697.0,STARLINK-4018,PAYLOAD,2024-04-04 15:37:16,15.08844796,0.0001559,53.2169,69.6737,87.7861,272.3309,0.0010293,0.00016133,0.0,0 STARLINK-4018,1 52697U 22053AT  24095.65088118  .00016133  00000-0  10293-2 0  9999,2 52697  53.2169  69.6737 0001559  87.7861 272.3309 15.08844796104397,6917.866,95.437,540.809,538.652,0.0
52697.0,STARLINK-4018,PAYLOAD,2024-04-04 21:58:48,15.08857046,0.0001472,53.2167,68.4839,86.6373,273.4788,0.0012316,0.00019376,0.0,0 STARLINK-4018,1 52697U 22053AT  24095.91583943  .00019376  00000-0  12316-2 0  9994,2 52697  53.2167  68.4839 0001472  86.6373 273.4788 15.08857046104840,6917.828,95.436,540.712,538.675,0.0
52697.0,STARLINK-4018,PAYLOAD,2024-04-05 04:20:20,15.08878053,0.0001354,53.2155,67.2941,89.3492,270.7655,0.0013274,0.00020923,0.0,0 STARLINK-4018,1 52697U 22053AT  24096.18079148  .00020923  00000-0  13274-2 0  9995,2 52697  53.2155  67.2941 0001354  89.3492 270.7655 15.08878053104472,6917.764,95.435,540.566,538.692,0.0
52697.0,STARLINK-4018,PAYLOAD,2024-04-05 07:31:06,15.0888861,0.0001363,53.2154,66.6992,88.5705,271.5443,0.0011906,0.00018736,0.0,0 STARLINK-4018,1 52697U 22053AT  24096.31326539  .00018736  00000-0  11906-2 0  9998,2 52697  53.2154  66.6992 0001363  88.5705 271.5443 15.08888610104900,6917.732,95.434,540.54,538.654,0.0
52697.0,STARLINK-4018,PAYLOAD,2024-04-05 15:28:00,15.08891881,0.0001339,53.2148,65.2112,88.6312,271.4833,0.00094664,0.00014831,0.0,0 STARLINK-4018,1 52697U 22053AT  24096.64445569  .00014831  00000-0  94664-3 0  9994,2 52697  53.2148  65.2112 0001339  88.6312 271.4833 15.08891881104951,6917.722,95.434,540.513,538.661,0.0
52697.0,STARLINK-4018,PAYLOAD,2024-04-06 04:11:05,15.08872978,0.0001147,53.2158,62.8328,84.7221,275.3902,0.00031035,4.659e-05,0.0,0 STARLINK-4018,1 52697U 22053AT  24097.17436860  .00004659  00000-0  31035-3 0  9997,2 52697  53.2158  62.8328 0001147  84.7221 275.3902 15.08872978104627,6917.78,95.435,540.438,538.851,0.0
52697.0,STARLINK-4018,PAYLOAD,2024-04-06 21:40:19,15.08857004,0.0001258,53.216,59.559,90.6502,269.4634,0.00051495,7.921e-05,0.0,0 STARLINK-4018,1 52697U 22053AT  24097.90300617  .00007921  00000-0  51495-3 0  9995,2 52697  53.2160  59.5590 0001258  90.6502 269.4634 15.08857004104736,6917.828,95.436,540.564,538.823,0.0
52697.0,STARLINK-4018,PAYLOAD,2024-04-07 07:12:38,15.08844009,0.000106,53.2167,57.7753,64.9081,295.2021,7.4575e-05,8.99e-06,0.0,0 STARLINK-4018,1 52697U 22053AT  24098.30044800  .00000899  00000-0  74575-4 0  9991,2 52697  53.2167  57.7753 0001060  64.9081 295.2021 15.08844009104795,6917.868,95.437,540.466,539.0,0.0
